     2.100          NAVIGATION                              RINEX VERSION / TYPE
fic2rin                                 09/24/2015 00:06:17 PGM / RUN BY / DATE
                                                            END OF HEADER
20 15  9 23 22  0  0.0  .357682351023D-03  .306954461848D-11  .000000000000D+00
     .600000000000D+02  .328437500000D+02  .557523223080D-08 -.110364056946D+00
     .184215605259D-05  .490090379026D-02  .879913568497D-05  .515364239883D+04
     .338400000000D+06 -.167638063431D-07 -.309345914363D+01 -.316649675369D-07
     .926664297665D+00  .191687500000D+03  .122880401479D+01 -.859500087343D-08
     .404659712844D-09  .100000000000D+01  .186300000000D+04  .000000000000D+00
     .240000000000D+01  .000000000000D+00 -.838190317154D-08  .600000000000D+02
     .331206000000D+06  .400000000000D+01
21 15  9 23 22  0  0.0 -.481875613332D-03 -.272848410532D-11  .000000000000D+00
     .680000000000D+02 -.891250000000D+02  .489770400903D-08  .306320576661D+01
    -.473670661449D-05  .225780560868D-01  .102948397398D-04  .515375889778D+04
     .338400000000D+06  .284984707832D-06  .219929000889D+01 -.242143869400D-06
     .934648402760D+00  .165625000000D+03 -.187701768484D+01 -.782389732530D-08
     .628597612185D-10  .100000000000D+01  .186300000000D+04  .000000000000D+00
     .340000000000D+01  .000000000000D+00 -.116415321827D-07  .680000000000D+02
     .331206000000D+06  .400000000000D+01
22 15  9 23 22  0  0.0  .394218601286D-03  .375166564481D-11  .000000000000D+00
     .530000000000D+02  .351875000000D+02  .567773650052D-08  .161106576262D+01
     .183098018169D-05  .800967006944D-02  .835955142975D-05  .515368118858D+04
     .338400000000D+06 -.268220901489D-06 -.304037104466D+01 -.104308128357D-06
     .923266742109D+00  .200531250000D+03 -.204176841169D+01 -.862143054576D-08
     .452161691492D-09  .100000000000D+01  .186300000000D+04  .000000000000D+00
     .240000000000D+01  .000000000000D+00 -.176951289177D-07  .530000000000D+02
     .331206000000D+06  .400000000000D+01
23 15  9 23 22  0  0.0 -.134929548949D-03 -.216004991671D-11  .000000000000D+00
     .750000000000D+02 -.759375000000D+01  .520950271098D-08 -.615213155240D+00
    -.478699803352D-06  .103916160297D-01  .603124499321D-05  .515379206276D+04
     .338400000000D+06  .126659870148D-06 -.196760670423D+01  .173225998878D-06
     .947360958987D+00  .254312500000D+03 -.262763428333D+01 -.851214027910D-08
    -.396445084958D-09  .100000000000D+01  .186300000000D+04  .000000000000D+00
     .240000000000D+01  .000000000000D+00 -.200234353542D-07  .750000000000D+02
     .331206000000D+06  .400000000000D+01
24 15  9 23 22  0  0.0 -.518839806318D-05 -.682121026330D-12  .000000000000D+00
     .104000000000D+03  .198437500000D+02  .440768359771D-08 -.130533306310D+01
     .110082328320D-05  .344013934955D-02  .116731971502D-04  .515366204071D+04
     .338400000000D+06  .149011611938D-07 -.940547064006D+00 -.137835741043D-06
     .952108274446D+00  .152093750000D+03  .300701823724D+00 -.796461747257D-08
    -.400373820034D-09  .100000000000D+01  .186300000000D+04  .000000000000D+00
     .340000000000D+01  .000000000000D+00  .232830643654D-08  .104000000000D+03
     .331206000000D+06  .400000000000D+01
25 15  9 23 22  0  0.0 -.428291969001D-04 -.522959453519D-11  .000000000000D+00
     .880000000000D+02  .816875000000D+02  .403088218814D-08  .289214331628D+01
     .421144068241D-05  .464094895869D-02  .646337866783D-05  .515362409019D+04
     .338400000000D+06 -.465661287308D-07  .124958945476D+00 -.484287738800D-07
     .978765139051D+00  .262593750000D+03  .745216981027D+00 -.797354641593D-08
     .325727853587D-09  .100000000000D+01  .186300000000D+04  .000000000000D+00
     .240000000000D+01  .000000000000D+00  .512227416039D-08  .880000000000D+02
     .331206000000D+06  .400000000000D+01
26 15  9 23 22  0  0.0 -.618039630353D-04 -.115960574476D-10  .000000000000D+00
     .530000000000D+02  .732812500000D+02  .446304304651D-08  .180952451389D+01
     .382401049137D-05  .170435174368D-03  .590831041336D-05  .515364224625D+04
     .338400000000D+06  .447034835815D-07  .120298501018D+00  .204890966415D-07
     .960834005862D+00  .265156250000D+03  .524359245279D+00 -.824677208259D-08
     .247510309798D-09  .100000000000D+01  .186300000000D+04  .000000000000D+00
     .240000000000D+01  .000000000000D+00  .745058059692D-08  .530000000000D+02
     .331206000000D+06  .400000000000D+01
27 15  9 23 22  0  0.0  .220481306314D-04  .295585778076D-11  .000000000000D+00
     .510000000000D+02 -.530937500000D+02  .451340228704D-08  .492595101055D+00
    -.278837978840D-05  .264738453552D-02  .395812094212D-05  .515370345688D+04
     .338400000000D+06  .204890966415D-07  .116789756081D+01  .149011611938D-07
     .968361661499D+00  .308187500000D+03  .324121224287D+00 -.833248993879D-08
    -.510735559900D-10  .100000000000D+01  .186300000000D+04  .000000000000D+00
     .240000000000D+01  .000000000000D+00  .139698386192D-08  .510000000000D+02
     .331206000000D+06  .400000000000D+01
28 15  9 23 22  0  0.0  .469632446766D-03  .261479726760D-11  .000000000000D+00
     .620000000000D+02  .694375000000D+02  .397052253106D-08  .136006451061D+01
     .330060720444D-05  .196965958457D-01  .585429370403D-05  .515369919395D+04
     .338400000000D+06 -.214204192162D-06  .196866601930D+00 -.469386577606D-06
     .989509115175D+00  .282968750000D+03 -.165720075825D+01 -.816284001505D-08
     .311441544219D-09  .100000000000D+01  .186300000000D+04  .000000000000D+00
     .240000000000D+01  .000000000000D+00 -.111758708954D-07  .620000000000D+02
     .331206000000D+06  .400000000000D+01
30 15  9 23 22  0  0.0  .296351499856D-04  .648014975013D-11  .000000000000D+00
     .880000000000D+02  .488437500000D+02  .436411035414D-08 -.232339127037D+01
     .240840017796D-05  .170892348979D-02  .111740082502D-04  .515370153427D+04
     .338400000000D+06 -.372529029846D-08 -.849982008682D+00  .372529029846D-08
     .954778426171D+00  .160812500000D+03  .312960952148D+01 -.797818946647D-08
    -.278583032673D-09  .100000000000D+01  .186300000000D+04  .000000000000D+00
     .240000000000D+01  .000000000000D+00  .325962901115D-08  .880000000000D+02
     .331206000000D+06  .400000000000D+01
31 15  9 23 22  0  0.0  .301776919514D-03 -.136424205266D-11  .000000000000D+00
     .840000000000D+02  .279375000000D+02  .403123934587D-08 -.227284364129D+01
     .145845115185D-05  .813011161517D-02  .109672546387D-04  .515360106087D+04
     .338400000000D+06 -.126659870148D-06 -.889360310890D+00  .875443220139D-07
     .973851486881D+00  .177750000000D+03 -.520421839304D+00 -.777210945384D-08
    -.306798493674D-09  .100000000000D+01  .186300000000D+04  .000000000000D+00
     .240000000000D+01  .000000000000D+00 -.135041773319D-07  .840000000000D+02
     .331206000000D+06  .400000000000D+01
32 15  9 23 22  0  0.0 -.346712768078D-04  .111413100967D-10  .000000000000D+00
     .650000000000D+02  .350625000000D+02  .519521640162D-08 -.182045640184D+01
     .175274908543D-05  .113285531988D-01  .775419175625D-05  .515368182373D+04
     .338400000000D+06  .108033418655D-06 -.293667170748D+01 -.206753611565D-06
     .947268008098D+00  .222406250000D+03  .128119310809D+00 -.838249202158D-08
     .507878298027D-09  .100000000000D+01  .186300000000D+04  .000000000000D+00
     .240000000000D+01  .000000000000D+00 -.372529029846D-08  .650000000000D+02
     .331206000000D+06  .400000000000D+01
25 15  9 23 21 59 44.0 -.428301282227D-04 -.522959453519D-11  .000000000000D+00
     .270000000000D+02  .816875000000D+02  .403088218814D-08  .288981040813D+01
     .421144068241D-05  .464095629286D-02  .646337866783D-05  .515362409782D+04
     .338384000000D+06 -.465661287308D-07  .124959068361D+00 -.484287738800D-07
     .978765120033D+00  .262593750000D+03  .745216050611D+00 -.797354641593D-08
     .325727853587D-09  .100000000000D+01  .186300000000D+04  .000000000000D+00
     .240000000000D+01  .000000000000D+00  .512227416039D-08  .270000000000D+02
     .332976000000D+06  .400000000000D+01
 5 15  9 23 21 59 44.0 -.192318111658D-03  .397903932026D-11  .000000000000D+00
     .700000000000D+01  .345625000000D+02  .518700177373D-08  .141434150994D+01
     .202842056751D-05  .439186382573D-02  .875256955624D-05  .515364544296D+04
     .338384000000D+06  .558793544769D-07 -.302558284175D+01  .987201929092D-07
     .946843636044D+00  .203375000000D+03  .422767820902D+00 -.836570560807D-08
     .388230457071D-09  .100000000000D+01  .186300000000D+04  .000000000000D+00
     .240000000000D+01  .000000000000D+00 -.107102096081D-07  .700000000000D+01
     .336546000000D+06  .400000000000D+01
10 15  9 23 22  0  0.0  .797212123871D-06  .125055521494D-11  .000000000000D+00
     .370000000000D+02 -.401562500000D+02  .494627746088D-08  .884222820550D+00
    -.213272869587D-05  .100936418166D-01  .334344804287D-05  .515364554405D+04
     .338400000000D+06  .596046447754D-07  .109162721347D+01  .162050127983D-06
     .949966143983D+00  .309437500000D+03  .146410203350D+00 -.858714340328D-08
    -.878608026122D-10  .100000000000D+01  .186300000000D+04  .000000000000D+00
     .240000000000D+01  .630000000000D+02 -.512227416039D-08  .370000000000D+02
     .338286000000D+06  .400000000000D+01
 5 15  9 23 23 59 44.0 -.192288774997D-03  .397903932026D-11  .000000000000D+00
     .800000000000D+01  .359687500000D+02  .515271463125D-08  .246458682176D+01
     .194273889065D-05  .439188384917D-02  .876188278198D-05  .515364511108D+04
     .345584000000D+06 -.838190317154D-07 -.302564333488D+01 -.279396772385D-07
     .946847321134D+00  .204093750000D+03  .422726007778D+00 -.823355724642D-08
     .498949354672D-09  .100000000000D+01  .186300000000D+04  .000000000000D+00
     .240000000000D+01  .000000000000D+00 -.107102096081D-07  .800000000000D+01
     .338406000000D+06  .400000000000D+01
